STARLINK-36995          
1 68143U 26049B   26078.26577997 -.00531426  10413-3 -90105-3 0  9991
2 68143  97.2800  97.7985 0000959  13.3742 346.7563 16.02629136   918
STARLINK-37020          
1 68144U 26049C   26078.51432062  .00978873  50884-3  15014-2 0  9993
2 68144  97.2794  98.0724 0000467 166.1555 193.9739 16.04472428   952
STARLINK-36244          
1 68145U 26049D   26078.01410660 -.00404794  63915-4 -62437-3 0  9999
2 68145  97.2798  97.5283 0000395  95.7237 264.4089 16.04211622   875
STARLINK-36980          
1 68146U 26049E   26078.57630927 -.00620452  13836-3 -10788-2 0  9999
2 68146  97.2792  98.1417 0000469  81.7263 278.4070 16.02210843   969
STARLINK-37055          
1 68147U 26049F   26078.51507610 -.00358165  49580-4 -62842-3 0  9990
2 68147  97.2798  98.0710 0002763  38.6438 321.5038 16.02010555   956
STARLINK-36981          
1 68148U 26049G   26078.51312866 -.04741621  76603-2 -87998-2 0  9997
2 68148  97.2791  98.0740 0009222 123.9534 236.2623 16.00484791   952
STARLINK-36992          
1 68149U 26049H   26078.51297425  .00562120  14895-3  90936-3 0  9993
2 68149  97.2794  98.0748 0005892  16.2793 343.8675 16.03449672   958
STARLINK-37060          
1 68150U 26049J   26078.51268954  .00514433  12358-3  83559-3 0  9999
2 68150  97.2790  98.0753 0003860 339.2818  20.8305 16.03397341   958
STARLINK-37073          
1 68151U 26049K   26078.51234559 -.00494902  91744-4 -81365-3 0  9994
2 68151  97.2790  98.0750 0000583 352.5845   7.5426 16.03149567   954
STARLINK-37049          
1 68152U 26049L   26078.01278527 -.00417006  68149-4 -61657-3 0  9998
2 68152  97.2794  97.5302 0000474  89.6838 270.4498 16.04917116   870
STARLINK-37072          
1 68153U 26049M   26078.51169095 -.00162025  12479-4 -25962-3 0  9995
2 68153  97.2788  98.0760 0002614  12.6003 347.5342 16.03506250   951
STARLINK-36241          
1 68154U 26049N   26078.51098387 -.00136495  95698-5 -21485-3 0  9994
2 68154  97.2787  98.0764 0002702  13.1240 347.0110 16.03790974   958
STARLINK-37048          
1 68155U 26049P   26078.32317889  .00101037  66606-5  15061-3 0  9997
2 68155  97.2786  97.8732 0002251 149.8692 210.2719 16.04907380   922
STARLINK-36313          
1 68156U 26049Q   26078.51069617 -.00172305  13864-4 -26937-3 0  9991
2 68156  97.2787  98.0771 0002314   1.4479 358.6808 16.03927223   952
STARLINK-37064          
1 68157U 26049R   26078.51127920 -.00144348  10411-4 -22898-3 0  9997
2 68157  97.2784  98.0764 0002238 357.8304   2.2966 16.03667729   951
STARLINK-37069          
1 68158U 26049S   26078.50941725  .01093981  68408-3  14785-2 0  9992
2 68158  97.2784  98.0788 0001368   7.2640 352.8662 16.06600253   959
STARLINK-37053          
1 68159U 26049T   26078.32241881  .00065181  41103-5  95454-4 0  9998
2 68159  97.2784  97.8738 0002531 141.0873 219.0591 16.05261971   921
STARLINK-36306          
1 68160U 26049U   26078.50927702 -.00201573  18201-4 -30344-3 0  9990
2 68160  97.2782  98.0789 0002364  13.0399 347.0943 16.04569636   959
STARLINK-37057          
1 68161U 26049V   26079.82223327 -.00764003  19799-3 -15396-2 0  9992
2 68161  97.2774  99.5066 0000516  61.6825 298.4505 15.99652779  1166
STARLINK-37013          
1 68162U 26049W   26080.25678626  .03031931  12808-1  61517-2 0  9994
2 68162  97.2751  99.9893 0012817 297.6978  62.3001 16.02635824  1235
STARLINK-36958          
1 68163U 26049X   26080.00774681 -.00565483  11312-3 -11262-2 0  9992
2 68163  97.2762  99.7144 0001530 151.8774 208.2587 15.99834123  1193
STARLINK-37002          
1 68164U 26049Y   26079.82054813 -.00481185  84172-4 -92966-3 0  9991
2 68164  97.2773  99.5096 0000568 170.3743 189.7546 16.00359997  1161
STARLINK-36971          
1 68165U 26049Z   26080.13247395 -.00332791  42083-4 -66881-3 0  9997
2 68165  97.2759  99.8506 0002227 142.1373 218.0062 15.99636512  1218
STARLINK-36273          
1 68166U 26049AA  26079.75630469 -.00306844  36957-4 -56287-3 0  9994
2 68166  97.2750  99.4439 0000648 211.7263 148.3977 16.01239572  1159
STARLINK-36969          
1 68167U 26050A   26078.57016830 -.00762286  19812-3 -16788-2 0  9993
2 68167  53.1618 232.5443 0000488 318.1927  41.9065 15.97343210  2033
STARLINK-36984          
1 68168U 26050B   26078.56997631 -.00752821  19400-3 -16463-2 0  9997
2 68168  53.1620 232.5441 0000565 333.0752  27.0248 15.97468217  2036
STARLINK-37077          
1 68169U 26050C   26078.56974941 -.00740191  18853-3 -16046-2 0  9992
2 68169  53.1619 232.5425 0000745 335.0992  25.0002 15.97622802  2033
STARLINK-37003          
1 68170U 26050D   26078.56952426 -.00716345  17815-3 -15382-2 0  9991
2 68170  53.1620 232.5407 0000461 327.9149  32.1853 15.97788708  2037
STARLINK-37034          
1 68171U 26050E   26078.56928901 -.00745719  19165-3 -15903-2 0  9999
2 68171  53.1619 232.5395 0000585 340.0636  20.0371 15.97919140  2033
